{
    "links": {
        "self": "http://www.neowsapp.com/rest/v1/neo/3754369?api_key=iIulBulltgU6a56xZRHN4H3l9WmuAYTsLGpBGhQ2"
    },
    "id": "3754369",
    "neo_reference_id": "3754369",
    "name": "(2016 NG)",
    "designation": "2016 NG",
    "nasa_jpl_url": "http://ssd.jpl.nasa.gov/sbdb.cgi?sstr=3754369",
    "absolute_magnitude_h": 23.9,
    "estimated_diameter": {
        "kilometers": {
            "estimated_diameter_min": 0.04411182,
            "estimated_diameter_max": 0.0986370281
        },
        "meters": {
            "estimated_diameter_min": 44.1118199997,
            "estimated_diameter_max": 98.6370281305
        },
        "miles": {
            "estimated_diameter_min": 0.0274098057,
            "estimated_diameter_max": 0.0612901888
        },
        "feet": {
            "estimated_diameter_min": 144.7238235278,
            "estimated_diameter_max": 323.6123073718
        }
    },
    "is_potentially_hazardous_asteroid": false,
    "close_approach_data": [
        {
            "close_approach_date": "2016-07-06",
            "close_approach_date_full": "2016-Jul-06 04:41",
            "epoch_date_close_approach": 1467780060000,
            "relative_velocity": {
                "kilometers_per_second": "10.5894808793",
                "kilometers_per_hour": "38122.1311655099",
                "miles_per_hour": "23687.6097789247"
            },
            "miss_distance": {
                "astronomical": "0.0641230567",
                "lunar": "24.9438690563",
                "kilometers": "9592672.700209229",
                "miles": "5960610.4187322002"
            },
            "orbiting_body": "Earth"
        }
    ],
    "orbital_data": {
        "orbit_id": "8",
        "orbit_determination_date": "2017-04-06 08:25:13",
        "first_observation_date": "2016-07-03",
        "last_observation_date": "2016-07-13",
        "data_arc_in_days": 10,
        "observations_used": 54,
        "orbit_uncertainty": "8",
        "minimum_orbit_intersection": ".0601818",
        "jupiter_tisserand_invariant": "4.094",
        "epoch_osculation": "2457574.5",
        "eccentricity": ".3982770508562987",
        "semi_major_axis": "1.684232118757641",
        "inclination": "15.75082922603435",
        "ascending_node_longitude": "276.2528734836648",
        "orbital_period": "798.3647339647091",
        "perihelion_distance": "1.013441117541392",
        "perihelion_argument": "41.27006274936551",
        "aphelion_distance": "2.355023119973889",
        "perihelion_time": "2457606.619821707909",
        "mean_anomaly": "345.5164747102189",
        "mean_motion": ".4509217212191056",
        "equinox": "J2000",
        "orbit_class": {
            "orbit_class_type": "APO",
            "orbit_class_description": "Near-Earth asteroid orbits which cross the Earth’s orbit similar to that of 1862 Apollo",
            "orbit_class_range": "a (semi-major axis) > 1.0 AU; q (perihelion) < 1.017 AU"
        }
    },
    "is_sentry_object": false
}